NORAD_CAT_ID,OBJECT_NAME,OBJECT_TYPE,EPOCH,MEAN_MOTION,ECCENTRICITY,INCLINATION,RA_OF_ASC_NODE,ARG_OF_PERICENTER,MEAN_ANOMALY,BSTAR,MEAN_MOTION_DOT,MEAN_MOTION_DDOT,TLE_LINE0,TLE_LINE1,TLE_LINE2,SEMIMAJOR_AXIS,PERIOD,APOGEE,PERIGEE,DECAYED
52650.0,STARLINK-3891,PAYLOAD,2023-07-09 12:51:30,15.08833589,0.000104,53.218,302.3729,99.3636,260.7474,-3.368e-05,-8.24e-06,0.0,0 STARLINK-3891,1 52650U 22052BE  23190.53576595 -.00000824  00000-0 -33680-4 0  9999,2 52650  53.2180 302.3729 0001040  99.3636 260.7474 15.08833589 64589,6917.9,95.438,540.484,539.046,0.0
52650.0,STARLINK-3891,PAYLOAD,2023-07-10 09:31:30,15.08844534,9.77e-05,53.2172,298.5073,105.8461,254.2639,0.00025595,3.788e-05,0.0,0 STARLINK-3891,1 52650U 22052BE  23191.39688579  .00003788  00000-0  25595-3 0  9995,2 52650  53.2172 298.5073 0000977 105.8461 254.2639 15.08844534 64713,6917.867,95.437,540.407,539.056,0.0
52650.0,STARLINK-3891,PAYLOAD,2023-07-11 07:46:54,15.08839945,9.24e-05,53.2171,294.3458,94.5819,265.5279,8.0427e-05,9.92e-06,0.0,0 STARLINK-3891,1 52650U 22052BE  23192.32424728  .00000992  00000-0  80427-4 0  9993,2 52650  53.2171 294.3458 0000924  94.5819 265.5279 15.08839945 64856,6917.881,95.438,540.385,539.106,0.0
52650.0,STARLINK-3891,PAYLOAD,2023-07-13 15:25:24,15.08837062,8.96e-05,53.2162,283.9374,76.1439,283.9653,0.00083691,0.00013056,0.0,0 STARLINK-3891,1 52650U 22052BE  23194.64264950  .00013056  00000-0  83691-3 0  9999,2 52650  53.2162 283.9374 0000896  76.1439 283.9653 15.08837062 65207,6917.889,95.438,540.374,539.135,0.0
52650.0,STARLINK-3891,PAYLOAD,2023-07-14 10:30:02,15.08846573,0.0001012,53.2161,280.369,67.1802,292.9297,0.00072363,0.00011249,0.0,0 STARLINK-3891,1 52650U 22052BE  23195.43753194  .00011249  00000-0  72363-3 0  9996,2 52650  53.2161 280.3690 0001012  67.1802 292.9297 15.08846573 65327,6917.86,95.437,540.425,539.025,0.0
52650.0,STARLINK-3891,PAYLOAD,2023-07-14 23:13:07,15.08840051,8.65e-05,53.2164,277.9903,69.7912,290.3173,0.00020466,2.971e-05,0.0,0 STARLINK-3891,1 52650U 22052BE  23195.96745214  .00002971  00000-0  20466-3 0  9997,2 52650  53.2164 277.9903 0000865  69.7912 290.3173 15.08840051 65403,6917.88,95.438,540.344,539.147,0.0
52650.0,STARLINK-3891,PAYLOAD,2023-07-16 11:47:00,15.08843134,0.000127,53.2159,271.1505,82.111,278.0026,0.00038157,5.791e-05,0.0,0 STARLINK-3891,1 52650U 22052BE  23197.49097759  .00005791  00000-0  38157-3 0  9990,2 52650  53.2159 271.1505 0001270  82.1110 278.0026 15.08843134 65631,6917.871,95.437,540.614,538.857,0.0
52650.0,STARLINK-3891,PAYLOAD,2023-07-17 16:23:56,15.08856527,0.0001009,53.2166,265.7976,75.7818,284.3286,0.00045506,6.965e-05,0.0,0 STARLINK-3891,1 52650U 22052BE  23198.68329129  .00006965  00000-0  45506-3 0  9991,2 52650  53.2166 265.7976 0001009  75.7818 284.3286 15.08856527 65811,6917.83,95.437,540.393,538.997,0.0
52650.0,STARLINK-3891,PAYLOAD,2023-07-17 21:10:06,15.08836058,0.0001793,53.2162,264.9059,87.3484,272.7713,-3.8779e-05,-9.05e-06,0.0,0 STARLINK-3891,1 52650U 22052BE  23198.88201981 -.00000905  00000-0 -38779-4 0  9993,2 52650  53.2162 264.9059 0001793  87.3484 272.7713 15.08836058 65844,6917.892,95.438,540.998,538.517,0.0
52650.0,STARLINK-3891,PAYLOAD,2023-07-18 09:53:11,15.08846932,0.000116,53.2169,262.5272,87.4456,272.6668,0.00018732,2.695e-05,0.0,0 STARLINK-3891,1 52650U 22052BE  23199.41193347  .00002695  00000-0  18732-3 0  9991,2 52650  53.2169 262.5272 0001160  87.4456 272.6668 15.08846932 65929,6917.859,95.437,540.527,538.922,0.0
52650.0,STARLINK-3891,PAYLOAD,2023-07-19 09:43:58,15.08837433,0.0001103,53.2161,258.0676,92.0475,268.0643,0.0001658,2.352e-05,0.0,0 STARLINK-3891,1 52650U 22052BE  23200.40553836  .00002352  00000-0  16580-3 0  9995,2 52650  53.2161 258.0676 0001103  92.0475 268.0643 15.08837433 66074,6917.888,95.438,540.516,538.99,0.0
52650.0,STARLINK-3891,PAYLOAD,2023-07-20 12:45:30,15.08882964,0.0001197,53.2152,253.0126,82.5058,277.607,0.0013152,0.0002073,0.0,0 STARLINK-3891,1 52650U 22052BE  23201.53160451  .00020730  00000-0  13152-2 0  9998,2 52650  53.2152 253.0126 0001197  82.5058 277.6070 15.08882964 66241,6917.749,95.435,540.442,538.786,0.0
52650.0,STARLINK-3891,PAYLOAD,2023-07-21 12:36:17,15.08866339,0.000147,53.2147,248.5527,85.1908,274.9252,0.0010686,0.00016772,0.0,0 STARLINK-3891,1 52650U 22052BE  23202.52520442  .00016772  00000-0  10686-2 0  9998,2 52650  53.2147 248.5527 0001470  85.1908 274.9252 15.08866339 66392,6917.8,95.436,540.682,538.648,0.0
52650.0,STARLINK-3891,PAYLOAD,2023-07-23 13:53:16,15.08847666,0.0001616,53.2155,239.3327,79.5852,280.5322,0.0006567,0.00010181,0.0,0 STARLINK-3891,1 52650U 22052BE  23204.57865996  .00010181  00000-0  65670-3 0  9993,2 52650  53.2155 239.3327 0001616  79.5852 280.5322 15.08847666 66331,6917.857,95.437,540.84,538.604,0.0
52650.0,STARLINK-3891,PAYLOAD,2023-07-25 11:59:27,15.08838663,0.000151,53.2157,230.7086,93.5778,266.5387,9.8455e-05,1.279e-05,0.0,0 STARLINK-3891,1 52650U 22052BE  23206.49962337  .00001279  00000-0  98455-4 0  9999,2 52650  53.2157 230.7086 0001510  93.5778 266.5387 15.08838663 66620,6917.884,95.438,540.794,538.705,0.0
52650.0,STARLINK-3891,PAYLOAD,2023-07-26 10:14:51,15.08841274,0.0001479,53.2157,226.547,85.0092,275.1069,0.00015851,2.236e-05,0.0,0 STARLINK-3891,1 52650U 22052BE  23207.42698402  .00002236  00000-0  15851-3 0  9994,2 52650  53.2157 226.5470 0001479  85.0092 275.1069 15.08841274 66769,6917.876,95.437,540.765,538.718,0.0
52650.0,STARLINK-3891,PAYLOAD,2023-07-27 10:05:38,15.0884379,0.0001442,53.2157,222.0864,88.3165,271.7992,0.00010822,1.435e-05,0.0,0 STARLINK-3891,1 52650U 22052BE  23208.42058198  .00001435  00000-0  10822-3 0  9990,2 52650  53.2157 222.0864 0001442  88.3165 271.7992 15.08843790 67284,6917.869,95.437,540.731,538.736,0.0
52650.0,STARLINK-3891,PAYLOAD,2023-07-28 06:45:39,15.08835228,0.0001443,53.2157,218.2208,89.4959,270.6198,-2.2557e-05,-6.47e-06,0.0,0 STARLINK-3891,1 52650U 22052BE  23209.28170747 -.00000647  00000-0 -22557-4 0  9995,2 52650  53.2157 218.2208 0001443  89.4959 270.6198 15.08835228 67415,6917.895,95.438,540.758,538.762,0.0
52650.0,STARLINK-3891,PAYLOAD,2023-07-28 08:21:02,15.08836931,0.0001395,53.2165,217.9234,90.4793,269.6359,2.3206e-05,8.1e-07,0.0,0 STARLINK-3891,1 52650U 22052BE  23209.34795002  .00000081  00000-0  23206-4 0  9991,2 52650  53.2165 217.9234 0001395  90.4793 269.6359 15.08836931 67052,6917.89,95.438,540.72,538.79,0.0
52650.0,STARLINK-3891,PAYLOAD,2023-07-29 09:47:12,15.08840909,0.000134,53.2165,213.1652,91.6808,268.4338,5.101e-05,5.24e-06,0.0,0 STARLINK-3891,1 52650U 22052BE  23210.40778751  .00000524  00000-0  51010-4 0  9998,2 52650  53.2165 213.1652 0001340  91.6808 268.4338 15.08840909 67586,6917.878,95.437,540.67,538.816,0.0
52650.0,STARLINK-3891,PAYLOAD,2023-07-30 11:13:22,15.08846406,0.0001306,53.2164,208.407,92.6613,267.4528,0.00015583,2.193e-05,0.0,0 STARLINK-3891,1 52650U 22052BE  23211.46762197  .00002193  00000-0  15583-3 0  9990,2 52650  53.2164 208.4070 0001306  92.6613 267.4528 15.08846406 67749,6917.861,95.437,540.629,538.822,0.0
52650.0,STARLINK-3891,PAYLOAD,2023-07-31 09:28:46,15.08841618,0.0001319,53.2164,204.2435,95.2172,264.8971,7.2907e-05,8.73e-06,0.0,0 STARLINK-3891,1 52650U 22052BE  23212.39498646  .00000873  00000-0  72907-4 0  9995,2 52650  53.2164 204.2435 0001319  95.2172 264.8971 15.08841618 67889,6917.875,95.437,540.653,538.828,0.0
52650.0,STARLINK-3891,PAYLOAD,2023-08-01 15:41:06,15.08839101,0.0001393,53.2171,198.5937,96.2006,263.9145,-1.23e-05,-4.84e-06,0.0,0 STARLINK-3891,1 52650U 22052BE  23213.65354994 -.00000484  00000-0 -12300-4 0  9993,2 52650  53.2171 198.5937 0001393  96.2006 263.9145 15.08839101 68077,6917.883,95.438,540.712,538.784,0.0
52650.0,STARLINK-3891,PAYLOAD,2023-08-03 02:39:36,15.08834938,0.0001304,53.217,192.0521,95.155,264.9591,3.2872e-05,2.35e-06,0.0,0 STARLINK-3891,1 52650U 22052BE  23215.11083568  .00000235  00000-0  32872-4 0  9990,2 52650  53.2170 192.0521 0001304  95.1550 264.9591 15.08834938 68291,6917.896,95.438,540.663,538.859,0.0
52650.0,STARLINK-3891,PAYLOAD,2023-08-04 07:16:32,15.08837879,0.0001317,53.2176,186.6987,87.2864,272.8279,1.9758e-05,2.7e-07,0.0,0 STARLINK-3891,1 52650U 22052BE  23216.30315839  .00000027  00000-0  19758-4 0  9998,2 52650  53.2176 186.6987 0001317  87.2864 272.8279 15.08837879 68474,6917.887,95.438,540.663,538.841,0.0
52650.0,STARLINK-3891,PAYLOAD,2023-08-05 07:07:19,15.0884974,0.0001331,53.2168,182.2384,86.8986,273.2158,0.0001234,1.677e-05,0.0,0 STARLINK-3891,1 52650U 22052BE  23217.29674859  .00001677  00000-0  12340-3 0  9998,2 52650  53.2168 182.2384 0001331  86.8986 273.2158 15.08849740 68622,6917.851,95.437,540.636,538.795,0.0
52650.0,STARLINK-3891,PAYLOAD,2023-08-06 02:11:57,15.08842363,0.0001356,53.2167,178.6704,86.4267,273.688,0.00010154,1.329e-05,0.0,0 STARLINK-3891,1 52650U 22052BE  23218.09163261  .00001329  00000-0  10154-3 0  9992,2 52650  53.2167 178.6704 0001356  86.4267 273.6880 15.08842363 68744,6917.873,95.437,540.676,538.8,0.0
52650.0,STARLINK-3891,PAYLOAD,2023-08-07 00:27:21,15.08837451,0.0001513,53.2164,174.5034,110.6068,249.5087,-3.8894e-05,-9.07e-06,0.0,0 STARLINK-3891,1 52650U 22052BE  23219.01899781 -.00000907  00000-0 -38894-4 0  9993,2 52650  53.2164 174.5034 0001513 110.6068 249.5087 15.08837451 68884,6917.888,95.438,540.8,538.707,0.0
52650.0,STARLINK-3891,PAYLOAD,2023-08-08 00:18:08,15.08845877,0.0001194,53.2159,170.0494,78.115,281.9976,4.3195e-06,-2.19e-06,0.0,0 STARLINK-3891,1 52650U 22052BE  23220.01259281 -.00000219  00000-0  43195-5 0  9996,2 52650  53.2159 170.0494 0001194  78.1150 281.9976 15.08845877 69030,6917.862,95.437,540.553,538.901,0.0
52650.0,STARLINK-3891,PAYLOAD,2023-08-08 05:04:16,15.08851795,0.0001214,53.2164,169.1565,86.9038,273.2093,6.2889e-05,7.13e-06,0.0,0 STARLINK-3891,1 52650U 22052BE  23220.21130693  .00000713  00000-0  62889-4 0  9991,2 52650  53.2164 169.1565 0001214  86.9038 273.2093 15.08851795 69062,6917.844,95.437,540.549,538.87,0.0
